QB50P1                  
1 40025U 14033R   26136.97103142  .00006896  00000+0  34515-3 0  9996
2 40025  98.0972 145.9407 0007928 344.3743  15.7243 15.17741337648292
DTUSAT-2                
1 40030U 14033W   26136.92698692  .00005638  00000+0  30937-3 0  9993
2 40030  98.0862 132.6817 0007466 355.6163   4.5000 15.14580395647953
QB50P2                  
1 40032U 14033Y   26136.92417875  .00005334  00000+0  29174-3 0  9991
2 40032  98.0751 131.8705 0005706 285.5578  74.5022 15.14729103647936
PERSEUS-M1              
1 40039U 14033AF  26137.05911750  .00001473  00000+0  13826-3 0  9991
2 40039  97.9633  80.6861 0012766  46.6737 313.5545 14.95519724645984
POLYITAN-1              
1 40042U 14033AJ  26136.77954166  .00015489  00000+0  50182-3 0  9999
2 40042  98.0960 160.0968 0005539 248.8269 111.2379 15.32106761648784
TIGRISAT                
1 40043U 14033AK  26136.85267451  .00001347  00000+0  16080-3 0  9990
2 40043  97.7796 287.5928 0049613 175.8470 184.3167 14.85017607640979
CANX-4                  
1 40055U 14034C   26137.07797061  .00000569  00000+0  80418-4 0  9996
2 40055  98.3162  11.2440 0014053 109.0957 251.1777 14.81202358639924
CANX-5                  
1 40056U 14034D   26137.14431588  .00000562  00000+0  79461-4 0  9993
2 40056  98.3164  11.3544 0014051 109.0801 251.1933 14.81219366630741
GONETS-M 10             
1 40063U 14036C   26137.16095639  .00000097  00000+0  62783-3 0  9999
2 40063  82.5101 326.9525 0021344 207.8344 152.1595 12.42945058538392
METEOR-M 2              
1 40069U 14037A   26137.17387295 -.00000016  00000+0  11803-4 0  9999
2 40069  98.5094 114.0140 0006723 119.5048 240.6801 14.21452626614918
DX1                     
1 40071U 14037C   26137.20021491  .00000608  00000+0  69744-4 0  9992
2 40071  98.3849  97.0282 0007902  24.3961 335.7627 14.89880369641499
UKUBE-1                 
1 40074U 14037F   26136.95833205  .00005991  00000+0  34361-3 0  9996
2 40074  98.4237 136.9642 0000296 112.9011 247.2248 15.13011726643833
GAOFEN-2                
1 40118U 14049A   26137.16244025  .00000423  00000+0  61712-4 0  9994
2 40118  98.0130 201.3968 0006869 345.8577  14.2442 14.80864549634643
BRITE-PL2 (HEWELIUSZ)   
1 40119U 14049B   26137.03964192  .00001130  00000+0  11013-3 0  9999
2 40119  97.9063 248.8085 0013476 207.9127 152.1371 14.94465279636797
CBERS 4                 
1 40336U 14079A   26137.15914961  .00000084  00000+0  44025-4 0  9992
2 40336  98.3555 194.9605 0002076  99.7408 260.4012 14.35499889599502
SMAP                    
1 40376U 15003A   26137.17369267  .00000240  00000+0  55392-4 0  9992
2 40376  98.1284 144.7074 0001268  71.0752 289.0587 14.63409317603084
GONETS-M 11             
1 40552U 15020A   26137.17777095  .00000054  00000+0  31438-3 0  9996
2 40552  82.4889  50.3114 0017403  69.8248 290.4701 12.42875851504884
GONETS-M 12             
1 40553U 15020B   26137.15161553  .00000008  00000+0 -12468-4 0  9994
2 40553  82.4922  51.4434 0016379  55.6736 304.5891 12.42889987504877
GONETS-M 13             
1 40554U 15020C   26137.20507064  .00000034  00000+0  17247-3 0  9999
2 40554  82.4886  50.0342 0014856  41.6307 318.5901 12.42868962504852
DMC3-FM1                
1 40715U 15032A   26137.15749115 -.00000103  00000+0 -60104-5 0  9991
2 40715  97.6507   3.5440 0006146 141.6288 218.5366 14.85698789585303
DMC3-FM2                
1 40716U 15032B   26137.17965234  .00000520  00000+0  65847-4 0  9995
2 40716  97.6559   5.1178 0006559 148.1314 212.0299 14.85704677585305
DMC3-FM3                
1 40717U 15032C   26137.13541758  .00000963  00000+0  11691-3 0  9991
2 40717  97.6614   6.8084 0005805 145.7428 214.4163 14.85697468585309
CARBONITE 1 (CBNT-1)    
1 40718U 15032D   26137.15646201  .00000574  00000+0  75856-4 0  9995
2 40718  97.6494 316.5275 0015547  41.1231 319.1152 14.83482758584744
LILACSAT-2              
1 40908U 15049K   26137.10845321  .00014566  00000+0  25802-3 0  9994
2 40908  97.4680 172.7887 0007177  23.9063 336.2520 15.50357283590938
COSMOS 2507 (RODNIK-S *)
1 40920U 15050A   26137.16137088 -.00000107  00000+0 -84431-3 0  9991
2 40920  82.4892  98.9854 0011145  59.5195 300.6984 12.42925607483002
COSMOS 2508 (RODNIK-S *)
1 40921U 15050B   26137.19656937 -.00000076  00000+0 -62323-3 0  9995
2 40921  82.4845  97.4803 0015495  89.7627 270.5228 12.42912854482999
COSMOS 2509 (RODNIK-S *)
1 40922U 15050C   26137.13564060 -.00000052  00000+0 -45019-3 0  9992
2 40922  82.4854  97.6173 0015688 105.9269 254.3541 12.42882562483024
