OBJECT_NAME,OBJECT_ID,EPOCH,MEAN_MOTION,ECCENTRICITY,INCLINATION,RA_OF_ASC_NODE,ARG_OF_PERICENTER,MEAN_ANOMALY,EPHEMERIS_TYPE,CLASSIFICATION_TYPE,NORAD_CAT_ID,ELEMENT_SET_NO,REV_AT_EPOCH,BSTAR,MEAN_MOTION_DOT,MEAN_MOTION_DDOT
QB50P1,2014-033R,2026-05-16T23:18:17.114688,15.17741337,.0007928,98.0972,145.9407,344.3743,15.7243,0,U,40025,999,64829,.34515E-3,.6896E-4,0
DTUSAT-2,2014-033W,2026-05-16T22:14:51.669888,15.14580395,.0007466,98.0862,132.6817,355.6163,4.5000,0,U,40030,999,64795,.30937E-3,.5638E-4,0
QB50P2,2014-033Y,2026-05-16T22:10:49.044000,15.14729103,.0005706,98.0751,131.8705,285.5578,74.5022,0,U,40032,999,64793,.29174E-3,.5334E-4,0
PERSEUS-M1,2014-033AF,2026-05-17T01:25:07.752000,14.95519724,.0012766,97.9633,80.6861,46.6737,313.5545,0,U,40039,999,64598,.13826E-3,.1473E-4,0
POLYITAN-1,2014-033AJ,2026-05-16T18:42:32.399424,15.32106761,.0005539,98.0960,160.0968,248.8269,111.2379,0,U,40042,999,64878,.50182048E-3,.15489E-3,0
TIGRISAT,2014-033AK,2026-05-16T20:27:51.077664,14.85017607,.00496134,97.7796,287.5928,175.8470,184.3167,0,U,40043,999,64097,.16079572E-3,.1347E-4,0
CANX-4,2014-034C,2026-05-17T01:52:16.660704,14.81202358,.0014053,98.3162,11.2440,109.0957,251.1777,0,U,40055,999,63992,.80418E-4,.569E-5,0
CANX-5,2014-034D,2026-05-17T03:27:48.892032,14.81219366,.0014051,98.3164,11.3544,109.0801,251.1933,0,U,40056,999,63074,.79461E-4,.562E-5,0
GONETS-M 10,2014-036C,2026-05-17T03:51:46.632096,12.42945058,.0021344,82.5101,326.9525,207.8344,152.1595,0,U,40063,999,53839,.62783E-3,.97E-6,0
METEOR-M 2,2014-037A,2026-05-17T04:10:22.622880,14.21452626,.0006723,98.5094,114.0140,119.5048,240.6801,0,U,40069,999,61491,.11803E-4,-.16E-6,0
DX1,2014-037C,2026-05-17T04:48:18.568224,14.89880369,.0007902,98.3849,97.0282,24.3961,335.7627,0,U,40071,999,64149,.69744E-4,.608E-5,0
UKUBE-1,2014-037F,2026-05-16T22:59:59.889120,15.13011726,.0000296,98.4237,136.9642,112.9011,247.2248,0,U,40074,999,64383,.34361E-3,.5991E-4,0
GAOFEN-2,2014-049A,2026-05-17T03:53:54.837600,14.80864549,.0006869,98.0130,201.3968,345.8577,14.2442,0,U,40118,999,63464,.61712E-4,.423E-5,0
BRITE-PL2 (HEWELIUSZ),2014-049B,2026-05-17T00:57:05.061888,14.94465279,.0013476,97.9063,248.8085,207.9127,152.1371,0,U,40119,999,63679,.11013E-3,.113E-4,0
CBERS 4,2014-079A,2026-05-17T03:49:10.526304,14.35499889,.0002076,98.3555,194.9605,99.7408,260.4012,0,U,40336,999,59950,.44025E-4,.84E-6,0
SMAP,2015-003A,2026-05-17T04:10:07.046688,14.63409317,.0001268,98.1284,144.7074,71.0752,289.0587,0,U,40376,999,60308,.55392E-4,.24E-5,0
GONETS-M 11,2015-020A,2026-05-17T04:15:59.410080,12.42875851,.0017403,82.4889,50.3114,69.8248,290.4701,0,U,40552,999,50488,.31438E-3,.54E-6,0
GONETS-M 12,2015-020B,2026-05-17T03:38:19.581792,12.42889987,.0016379,82.4922,51.4434,55.6736,304.5891,0,U,40553,999,50487,-.12468E-4,.8E-7,0
GONETS-M 13,2015-020C,2026-05-17T04:55:18.103296,12.42868962,.0014856,82.4886,50.0342,41.6307,318.5901,0,U,40554,999,50485,.17247E-3,.34E-6,0
DMC3-FM1,2015-032A,2026-05-17T03:46:47.235360,14.85698789,.0006146,97.6507,3.5440,141.6288,218.5366,0,U,40715,999,58530,-.60104E-5,-.103E-5,0
DMC3-FM2,2015-032B,2026-05-17T04:18:41.962176,14.85704677,.0006559,97.6559,5.1178,148.1314,212.0299,0,U,40716,999,58530,.65847E-4,.52E-5,0
DMC3-FM3,2015-032C,2026-05-17T03:15:00.078912,14.85697468,.0005805,97.6614,6.8084,145.7428,214.4163,0,U,40717,999,58530,.11691E-3,.963E-5,0
CARBONITE 1 (CBNT-1),2015-032D,2026-05-17T03:45:18.317664,14.83482758,.0015547,97.6494,316.5275,41.1231,319.1152,0,U,40718,999,58474,.75856E-4,.574E-5,0
LILACSAT-2,2015-049K,2026-05-17T02:36:10.357344,15.50357283,.0007177,97.4680,172.7887,23.9063,336.2520,0,U,40908,999,59093,.25802E-3,.14566E-3,0
COSMOS 2507 (RODNIK-S 13),2015-050A,2026-05-17T03:52:22.444032,12.42925607,.0011145,82.4892,98.9854,59.5195,300.6984,0,U,40920,999,48300,-.84431E-3,-.107E-5,0
COSMOS 2508 (RODNIK-S 14),2015-050B,2026-05-17T04:43:03.593568,12.42912854,.0015495,82.4845,97.4803,89.7627,270.5228,0,U,40921,999,48299,-.62323E-3,-.76E-6,0
COSMOS 2509 (RODNIK-S 15),2015-050C,2026-05-17T03:15:19.347840,12.42882562,.0015688,82.4854,97.6173,105.9269,254.3541,0,U,40922,999,48302,-.45019E-3,-.52E-6,0
